IRIDIUM 150             
1 43257U 18030J   25203.63142788  .00000040  00000+0  71303-5 0  9996
2 43257  86.3931  68.2410 0001879  89.1539 270.9872 14.34217699382929
IRIDIUM 143             
1 43258U 18030K   25203.61239951  .00000083  00000+0  22491-4 0  9994
2 43258  86.3934  68.3289 0001736  94.5702 265.5692 14.34217993382851
IRIDIUM 161             
1 43478U 18047C   25203.57018645  .00000204  00000+0  54773-4 0  9999
2 43478  86.4474 226.1493 0002529  87.3971 272.7520 14.43280266377593
IRIDIUM 152             
1 43479U 18047D   25203.58511794 -.00000013  00000+0 -11630-4 0  9999
2 43479  86.3951 226.0036 0002234  87.4387 272.7065 14.34217510375246
IRIDIUM 147             
1 43480U 18047E   25203.52169334  .00000039  00000+0  69232-5 0  9992
2 43480  86.3950 226.0296 0002433  92.5577 267.5897 14.34217711375231
IRIDIUM 110             
1 43481U 18047F   25203.59780380  .00000067  00000+0  16800-4 0  9993
2 43481  86.3950 226.0808 0002705  85.3134 274.8370 14.34217725375234
IRIDIUM 162             
1 43482U 18047G   25203.56388483  .00000222  00000+0  60024-4 0  9999
2 43482  86.4473 226.0468 0002502  83.7418 276.4068 14.43280901377588
IRIDIUM 160             
1 43569U 18061A   25203.47387083  .00000034  00000+0  50203-5 0  9996
2 43569  86.3991 194.5449 0002487  85.5357 274.6122 14.34217832366111
